NORAD_CAT_ID,OBJECT_NAME,OBJECT_TYPE,EPOCH,MEAN_MOTION,ECCENTRICITY,INCLINATION,RA_OF_ASC_NODE,ARG_OF_PERICENTER,MEAN_ANOMALY,BSTAR,MEAN_MOTION_DOT,MEAN_MOTION_DDOT,TLE_LINE0,TLE_LINE1,TLE_LINE2,SEMIMAJOR_AXIS,PERIOD,APOGEE,PERIGEE,DECAYED
49153.0,STARLINK-3072,PAYLOAD,2024-05-07 03:53:55,14.98338249,0.0003414,69.9984,147.6171,271.8516,88.2252,0.00018529,2.119e-05,0.0,0 STARLINK-3072,1 49153U 21082Z   24128.16245067  .00002119  00000-0  18529-3 0  9994,2 49153  69.9984 147.6171 0003414 271.8516  88.2252 14.98338249146366,6950.167,96.106,574.405,569.66,0.0
49153.0,STARLINK-3072,PAYLOAD,2024-05-07 10:18:27,14.98341105,0.0003392,69.9985,146.9438,272.1781,87.8989,0.00021685,2.496e-05,0.0,0 STARLINK-3072,1 49153U 21082Z   24128.42948805  .00002496  00000-0  21685-3 0  9998,2 49153  69.9985 146.9438 0003392 272.1781  87.8989 14.98341105147625,6950.159,96.106,574.381,569.666,0.0
49153.0,STARLINK-3072,PAYLOAD,2024-05-07 18:19:07,14.98342777,0.0003376,69.9985,146.1022,271.7701,88.3071,0.00018918,2.166e-05,0.0,0 STARLINK-3072,1 49153U 21082Z   24128.76328481  .00002166  00000-0  18918-3 0  9996,2 49153  69.9985 146.1022 0003376 271.7701  88.3071 14.98342777147674,6950.153,96.106,574.365,569.672,0.0
49153.0,STARLINK-3072,PAYLOAD,2024-05-08 05:32:03,14.98348768,0.0003406,69.9984,144.9238,271.4625,88.6144,0.00020458,2.35e-05,0.0,0 STARLINK-3072,1 49153U 21082Z   24129.23059842  .00002350  00000-0  20458-3 0  9998,2 49153  69.9984 144.9238 0003406 271.4625  88.6144 14.98348768146527,6950.135,96.106,574.367,569.633,0.0
49153.0,STARLINK-3072,PAYLOAD,2024-05-08 10:20:27,14.98350805,0.0003402,69.9985,144.4189,271.4349,88.642,0.00022695,2.617e-05,0.0,0 STARLINK-3072,1 49153U 21082Z   24129.43087538  .00002617  00000-0  22695-3 0  9994,2 49153  69.9985 144.4189 0003402 271.4349  88.6420 14.98350805147777,6950.129,96.106,574.358,569.629,0.0
49153.0,STARLINK-3072,PAYLOAD,2024-05-08 18:21:08,14.98341322,0.0003332,69.9994,143.5773,270.5171,89.5606,3.7892e-05,3.59e-06,0.0,0 STARLINK-3072,1 49153U 21082Z   24129.76467873  .00000359  00000-0  37892-4 0  9991,2 49153  69.9994 143.5773 0003332 270.5171  89.5606 14.98341322146602,6950.158,96.106,574.339,569.707,0.0
49153.0,STARLINK-3072,PAYLOAD,2024-05-09 05:34:04,14.98336777,0.000328,69.9988,142.3992,269.9059,90.1725,-2.6187e-05,-4.06e-06,0.0,0 STARLINK-3072,1 49153U 21082Z   24130.23200227 -.00000406  00000-0 -26187-4 0  9993,2 49153  69.9988 142.3992 0003280 269.9059  90.1725 14.98336777146679,6950.172,96.107,574.317,569.757,0.0
49153.0,STARLINK-3072,PAYLOAD,2024-05-09 10:22:29,14.98334403,0.0003306,69.9987,141.8943,269.6243,90.4537,-4.2808e-05,-6.04e-06,0.0,0 STARLINK-3072,1 49153U 21082Z   24130.43228253 -.00000604  00000-0 -42808-4 0  9992,2 49153  69.9987 141.8943 0003306 269.6243  90.4537 14.98334403147926,6950.179,96.107,574.342,569.747,0.0
49153.0,STARLINK-3072,PAYLOAD,2024-05-10 05:36:05,14.98340935,0.0003354,69.9987,139.875,269.4804,90.5971,-1.8069e-05,-3.09e-06,0.0,0 STARLINK-3072,1 49153U 21082Z   24131.23339431 -.00000309  00000-0 -18069-4 0  9996,2 49153  69.9987 139.8750 0003354 269.4804  90.5971 14.98340935146821,6950.159,96.106,574.355,569.693,0.0
49153.0,STARLINK-3072,PAYLOAD,2024-05-10 10:24:29,14.98341537,0.0003361,69.9985,139.3692,268.8144,91.263,-2.1468e-05,-3.49e-06,0.0,0 STARLINK-3072,1 49153U 21082Z   24131.43367232 -.00000349  00000-0 -21468-4 0  9999,2 49153  69.9985 139.3692 0003361 268.8144  91.2630 14.98341537148075,6950.157,96.106,574.358,569.686,0.0
49153.0,STARLINK-3072,PAYLOAD,2024-05-10 18:25:09,14.98333164,0.000337,69.9986,138.5272,267.6844,92.3929,3.5776e-05,3.34e-06,0.0,0 STARLINK-3072,1 49153U 21082Z   24131.76747529  .00000334  00000-0  35776-4 0  9995,2 49153  69.9986 138.5272 0003370 267.6844  92.3929 14.98333164146905,6950.183,96.107,574.39,569.706,0.0
49153.0,STARLINK-3072,PAYLOAD,2024-05-11 10:26:29,14.98347117,0.0003119,69.999,136.8447,269.156,90.9242,0.00032804,3.825e-05,0.0,0 STARLINK-3072,1 49153U 21082Z   24132.43506710  .00003825  00000-0  32804-3 0  9991,2 49153  69.9990 136.8447 0003119 269.1560  90.9242 14.98347117147005,6950.14,96.106,574.173,569.837,0.0
49153.0,STARLINK-3072,PAYLOAD,2024-05-12 05:40:06,14.98346019,0.0003233,70.0001,134.8242,268.9827,91.0962,0.00027972,3.248e-05,0.0,0 STARLINK-3072,1 49153U 21082Z   24133.23618314  .00003248  00000-0  27972-3 0  9993,2 49153  70.0001 134.8242 0003233 268.9827  91.0962 14.98346019147126,6950.143,96.106,574.255,569.761,0.0
49153.0,STARLINK-3072,PAYLOAD,2024-05-12 10:28:30,14.98346196,0.0003298,69.9997,134.3199,268.7586,91.3196,0.00021755,2.505e-05,0.0,0 STARLINK-3072,1 49153U 21082Z   24133.43646059  .00002505  00000-0  21755-3 0  9990,2 49153  69.9997 134.3199 0003298 268.7586  91.3196 14.98346196148370,6950.143,96.106,574.3,569.716,0.0
49153.0,STARLINK-3072,PAYLOAD,2024-05-12 16:53:02,14.98350103,0.0002893,70.002,133.648,267.4612,92.6216,-0.00074095,-8.927e-05,0.0,0 STARLINK-3072,1 49153U 21082Z   24133.70349606 -.00008927  00000-0 -74095-3 0  9999,2 49153  70.0020 133.6480 0002893 267.4612  92.6216 14.98350103148416,6950.131,96.106,574.006,569.985,0.0
49153.0,STARLINK-3072,PAYLOAD,2024-05-13 04:05:59,14.9832868,0.0002724,70.0027,132.4711,267.0793,93.0054,-7.9555e-05,-1.042e-05,0.0,0 STARLINK-3072,1 49153U 21082Z   24134.17082975 -.00001042  00000-0 -79555-4 0  9992,2 49153  70.0027 132.4711 0002724 267.0793  93.0054 14.98328680147268,6950.197,96.107,573.955,570.169,0.0
49153.0,STARLINK-3072,PAYLOAD,2024-05-13 10:30:31,14.9832967,0.0002805,70.0013,131.7975,258.7703,101.3141,-0.00064827,-7.819e-05,0.0,0 STARLINK-3072,1 49153U 21082Z   24134.43786896 -.00007819  00000-0 -64827-3 0  9997,2 49153  70.0013 131.7975 0002805 258.7703 101.3141 14.98329670148525,6950.194,96.107,574.008,570.109,0.0
49153.0,STARLINK-3072,PAYLOAD,2024-05-13 16:55:04,14.9832148,0.0003025,70.0004,131.1226,270.7111,89.3701,-0.00023968,-2.951e-05,0.0,0 STARLINK-3072,1 49153U 21082Z   24134.70491501 -.00002951  00000-0 -23968-3 0  9996,2 49153  70.0004 131.1226 0003025 270.7111  89.3701 14.98321480147347,6950.219,96.108,574.187,569.982,0.0
49153.0,STARLINK-3072,PAYLOAD,2024-05-14 08:56:25,14.98325108,0.0003088,69.9991,129.4387,270.0428,90.0377,-4.9345e-05,-6.82e-06,0.0,0 STARLINK-3072,1 49153U 21082Z   24135.37251922 -.00000682  00000-0 -49345-4 0  9998,2 49153  69.9991 129.4387 0003088 270.0428  90.0377 14.98325108148665,6950.208,96.107,574.219,569.927,0.0
49153.0,STARLINK-3072,PAYLOAD,2024-05-15 05:46:10,14.98324272,0.0003199,69.9984,127.2496,269.1434,90.9358,0.00024474,2.828e-05,0.0,0 STARLINK-3072,1 49153U 21082Z   24136.24039984  .00002828  00000-0  24474-3 0  9994,2 49153  69.9984 127.2496 0003199 269.1434  90.9358 14.98324272147571,6950.211,96.107,574.299,569.852,0.0
49153.0,STARLINK-3072,PAYLOAD,2024-05-15 08:58:26,14.98326764,0.0003188,69.9985,126.9129,269.1298,90.9496,0.00027892,3.236e-05,0.0,0 STARLINK-3072,1 49153U 21082Z   24136.37391941  .00003236  00000-0  27892-3 0  9993,2 49153  69.9985 126.9129 0003188 269.1298  90.9496 14.98326764148816,6950.203,96.107,574.284,569.852,0.0
49153.0,STARLINK-3072,PAYLOAD,2024-05-15 21:47:30,14.98334646,0.0003215,69.9983,125.5661,268.8267,91.2524,0.00029443,3.422e-05,0.0,0 STARLINK-3072,1 49153U 21082Z   24136.90799545  .00003422  00000-0  29443-3 0  9995,2 49153  69.9983 125.5661 0003215 268.8267  91.2524 14.98334646148895,6950.179,96.107,574.278,569.809,0.0
49153.0,STARLINK-3072,PAYLOAD,2024-05-16 04:12:03,14.9834089,0.0003219,69.9996,124.8929,269.3589,90.7201,0.0003968,4.646e-05,0.0,0 STARLINK-3072,1 49153U 21082Z   24137.17503495  .00004646  00000-0  39680-3 0  9995,2 49153  69.9996 124.8929 0003219 269.3589  90.7201 14.98340890147719,6950.159,96.106,574.261,569.787,0.0
49153.0,STARLINK-3072,PAYLOAD,2024-05-16 09:00:26,14.98349244,0.0003186,69.9999,124.3878,268.5259,91.5535,0.00056099,6.61e-05,0.0,0 STARLINK-3072,1 49153U 21082Z   24137.37531138  .00006610  00000-0  56099-3 0  9998,2 49153  69.9999 124.3878 0003186 268.5259  91.5535 14.98349244148967,6950.133,96.106,574.213,569.784,0.0
49153.0,STARLINK-3072,PAYLOAD,2024-05-16 21:49:31,14.98340705,0.0003025,70.0,123.0402,266.5097,93.5716,0.00016616,1.891e-05,0.0,0 STARLINK-3072,1 49153U 21082Z   24137.90939046  .00001891  00000-0  16616-3 0  9994,2 49153  70.0000 123.0402 0003025 266.5097  93.5716 14.98340705149048,6950.16,96.106,574.127,569.922,0.0
49153.0,STARLINK-3072,PAYLOAD,2024-05-17 05:50:11,14.98337917,0.0003138,69.9996,122.1999,270.0499,90.0301,8.2115e-05,8.87e-06,0.0,0 STARLINK-3072,1 49153U 21082Z   24138.24318996  .00000887  00000-0  82115-4 0  9999,2 49153  69.9996 122.1999 0003138 270.0499  90.0301 14.98337917147873,6950.168,96.106,574.214,569.852,0.0
49153.0,STARLINK-3072,PAYLOAD,2024-05-17 09:02:27,14.9833766,0.0003145,69.9985,121.8632,269.538,90.5419,0.00010401,1.148e-05,0.0,0 STARLINK-3072,1 49153U 21082Z   24138.37671020  .00001148  00000-0  10401-3 0  9992,2 49153  69.9985 121.8632 0003145 269.5380  90.5419 14.98337660149110,6950.169,96.107,574.22,569.848,0.0
49153.0,STARLINK-3072,PAYLOAD,2024-05-17 21:51:32,14.98332384,0.0003027,69.9993,120.5165,271.101,88.9802,5.3956e-06,-2.9e-07,0.0,0 STARLINK-3072,1 49153U 21082Z   24138.91079352 -.00000029  00000-0  53956-5 0  9994,2 49153  69.9993 120.5165 0003027 271.1010  88.9802 14.98332384147971,6950.186,96.107,574.154,569.947,0.0
49153.0,STARLINK-3072,PAYLOAD,2024-05-18 09:04:29,14.98309064,0.0002818,69.9991,119.3383,263.8125,96.2713,0.00049065,5.763e-05,0.0,0 STARLINK-3072,1 49153U 21082Z   24139.37811762  .00005763  00000-0  49065-3 0  9997,2 49153  69.9991 119.3383 0002818 263.8125  96.2713 14.98309064148040,6950.258,96.108,574.081,570.164,0.0
49153.0,STARLINK-3072,PAYLOAD,2024-05-18 21:53:34,14.98257563,0.0002929,69.9992,117.992,265.56,94.5224,0.0012634,0.00014986,0.0,0 STARLINK-3072,1 49153U 21082Z   24139.91220395  .00014986  00000-0  12634-2 0  9991,2 49153  69.9992 117.9920 0002929 265.5600  94.5224 14.98257563148125,6950.417,96.112,574.318,570.246,0.0
